<?xml version="1.0" encoding="UTF-8"?>
<osm version="0.6">
<node lat="47.65313807187522" lon="14.836988497240688" id="-599">
  <tag k="amenity" v="fire_station"></tag>
  <tag k="ref:ogdsteiermark" v="1440"></tag>
  <tag k="name" v="Gamsforst"></tag>
  <tag k="note:type" v="FF"></tag>
</node>
<node lat="47.57331638966458" lon="14.456214097492682" id="-600">
  <tag k="amenity" v="fire_station"></tag>
  <tag k="ref:ogdsteiermark" v="1441"></tag>
  <tag k="name" v="Admont"></tag>
  <tag k="note:type" v="FF"></tag>
</node>
<node lat="47.52387100816004" lon="14.14421677939529" id="-601">
  <tag k="amenity" v="fire_station"></tag>
  <tag k="ref:ogdsteiermark" v="1442"></tag>
  <tag k="name" v="Aigen im Ennstal"></tag>
  <tag k="note:type" v="FF"></tag>
</node>
<node lat="47.63624845657534" lon="13.762455317412622" id="-602">
  <tag k="amenity" v="fire_station"></tag>
  <tag k="ref:ogdsteiermark" v="1443"></tag>
  <tag k="name" v="Altaussee"></tag>
  <tag k="note:type" v="FF"></tag>
</node>
<node lat="47.72286462172322" lon="14.651010410128045" id="-603">
  <tag k="amenity" v="fire_station"></tag>
  <tag k="ref:ogdsteiermark" v="1444"></tag>
  <tag k="name" v="Altenmarkt bei St. Gallen"></tag>
  <tag k="note:type" v="FF"></tag>
</node>
<node lat="47.59113353780402" lon="14.366064821947308" id="-604">
  <tag k="amenity" v="fire_station"></tag>
  <tag k="ref:ogdsteiermark" v="1445"></tag>
  <tag k="name" v="Ardning"></tag>
  <tag k="note:type" v="FF"></tag>
</node>
<node lat="47.42665105674311" lon="13.835736487606791" id="-605">
  <tag k="amenity" v="fire_station"></tag>
  <tag k="ref:ogdsteiermark" v="1446"></tag>
  <tag k="name" v="Assach"></tag>
  <tag k="note:type" v="FF"></tag>
</node>
<node lat="47.48817703149467" lon="14.528070839639346" id="-606">
  <tag k="amenity" v="fire_station"></tag>
  <tag k="ref:ogdsteiermark" v="1447"></tag>
  <tag k="name" v="Au"></tag>
  <tag k="note:type" v="FF"></tag>
</node>
<node lat="47.611786354601264" lon="13.783218600401929" id="-607">
  <tag k="amenity" v="fire_station"></tag>
  <tag k="ref:ogdsteiermark" v="1448"></tag>
  <tag k="name" v="Bad Aussee"></tag>
  <tag k="note:type" v="FF"></tag>
</node>
<node lat="47.55373265914041" lon="13.936111330595185" id="-608">
  <tag k="amenity" v="fire_station"></tag>
  <tag k="ref:ogdsteiermark" v="1449"></tag>
  <tag k="name" v="Bad Mitterndorf"></tag>
  <tag k="note:type" v="FF"></tag>
</node>
<node lat="47.51576020207586" lon="14.430254472091622" id="-609">
  <tag k="amenity" v="fire_station"></tag>
  <tag k="ref:ogdsteiermark" v="1450"></tag>
  <tag k="name" v="Bärndorf"></tag>
  <tag k="note:type" v="FF"></tag>
</node>
<node lat="47.49373551381027" lon="14.02160479447059" id="-610">
  <tag k="amenity" v="fire_station"></tag>
  <tag k="ref:ogdsteiermark" v="1451"></tag>
  <tag k="name" v="Diemlern"></tag>
  <tag k="note:type" v="FF"></tag>
</node>
<node lat="47.50436020298394" lon="14.477154362567857" id="-611">
  <tag k="amenity" v="fire_station"></tag>
  <tag k="ref:ogdsteiermark" v="1452"></tag>
  <tag k="name" v="Dietmannsdorf"></tag>
  <tag k="note:type" v="FF"></tag>
</node>
<node lat="47.54489787745225" lon="14.209511264464902" id="-612">
  <tag k="amenity" v="fire_station"></tag>
  <tag k="ref:ogdsteiermark" v="1453"></tag>
  <tag k="name" v="Döllach"></tag>
  <tag k="note:type" v="FF"></tag>
</node>
<node lat="47.4677040129341" lon="14.12797368494055" id="-613">
  <tag k="amenity" v="fire_station"></tag>
  <tag k="ref:ogdsteiermark" v="1454"></tag>
  <tag k="name" v="Donnersbach"></tag>
  <tag k="note:type" v="FF"></tag>
</node>
<node lat="47.38458735798674" lon="14.115851810377405" id="-614">
  <tag k="amenity" v="fire_station"></tag>
  <tag k="ref:ogdsteiermark" v="1455"></tag>
  <tag k="name" v="Donnersbachwald"></tag>
  <tag k="note:type" v="FF"></tag>
</node>
<node lat="47.47738395102525" lon="14.126118126697689" id="-615">
  <tag k="amenity" v="fire_station"></tag>
  <tag k="ref:ogdsteiermark" v="1456"></tag>
  <tag k="name" v="Erlsberg"></tag>
  <tag k="note:type" v="FF"></tag>
</node>
<node lat="47.59793007085831" lon="13.784563033736246" id="-616">
  <tag k="amenity" v="fire_station"></tag>
  <tag k="ref:ogdsteiermark" v="1457"></tag>
  <tag k="name" v="Eselsbach-Unterkainisch"></tag>
  <tag k="note:type" v="FF"></tag>
</node>
<node lat="47.54410765181291" lon="14.193850256983016" id="-617">
  <tag k="amenity" v="fire_station"></tag>
  <tag k="ref:ogdsteiermark" v="1458"></tag>
  <tag k="name" v="Fischern"></tag>
  <tag k="note:type" v="FF"></tag>
</node>
<node lat="47.37469029315675" lon="14.005949361181342" id="-618">
  <tag k="amenity" v="fire_station"></tag>
  <tag k="ref:ogdsteiermark" v="1459"></tag>
  <tag k="name" v="Fleiß"></tag>
  <tag k="note:type" v="FF"></tag>
</node>
<node lat="47.587069627168184" lon="14.396482847017925" id="-619">
  <tag k="amenity" v="fire_station"></tag>
  <tag k="ref:ogdsteiermark" v="1460"></tag>
  <tag k="name" v="Frauenberg i. Ennstal"></tag>
  <tag k="note:type" v="FF"></tag>
</node>
<node lat="47.4875959652414" lon="14.537462531404861" id="-620">
  <tag k="amenity" v="fire_station"></tag>
  <tag k="ref:ogdsteiermark" v="1461"></tag>
  <tag k="name" v="Gaishorn am See"></tag>
  <tag k="note:type" v="FF"></tag>
</node>
<node lat="47.67311253277255" lon="14.782894181279831" id="-621">
  <tag k="amenity" v="fire_station"></tag>
  <tag k="ref:ogdsteiermark" v="1462"></tag>
  <tag k="name" v="Gams bei Hieflau"></tag>
  <tag k="note:type" v="FF"></tag>
</node>
<node lat="47.63950709074877" lon="13.903091389647052" id="-622">
  <tag k="amenity" v="fire_station"></tag>
  <tag k="ref:ogdsteiermark" v="1463"></tag>
  <tag k="name" v="Gößl"></tag>
  <tag k="note:type" v="FF"></tag>
</node>
<node lat="47.447028965403156" lon="13.901470249614222" id="-623">
  <tag k="amenity" v="fire_station"></tag>
  <tag k="ref:ogdsteiermark" v="1464"></tag>
  <tag k="name" v="Gröbming"></tag>
  <tag k="note:type" v="FF"></tag>
</node>
<node lat="47.66521146485194" lon="14.716121497718904" id="-624">
  <tag k="amenity" v="fire_station"></tag>
  <tag k="ref:ogdsteiermark" v="1465"></tag>
  <tag k="name" v="Großreifling"></tag>
  <tag k="note:type" v="FF"></tag>
</node>
<node lat="47.627080513667984" lon="13.838696028522822" id="-625">
  <tag k="amenity" v="fire_station"></tag>
  <tag k="ref:ogdsteiermark" v="1466"></tag>
  <tag k="name" v="Grundlsee"></tag>
  <tag k="note:type" v="FF"></tag>
</node>
<node lat="47.59989760451002" lon="14.459574584397584" id="-626">
  <tag k="amenity" v="fire_station"></tag>
  <tag k="ref:ogdsteiermark" v="1467"></tag>
  <tag k="name" v="Hall bei Admont"></tag>
  <tag k="note:type" v="FF"></tag>
</node>
<node lat="47.505454205443115" lon="14.102529863527012" id="-627">
  <tag k="amenity" v="fire_station"></tag>
  <tag k="ref:ogdsteiermark" v="1468"></tag>
  <tag k="name" v="Irdning"></tag>
  <tag k="note:type" v="FF"></tag>
</node>
<node lat="47.56758743019096" lon="13.85414077539333" id="-628">
  <tag k="amenity" v="fire_station"></tag>
  <tag k="ref:ogdsteiermark" v="1469"></tag>
  <tag k="name" v="Kainisch"></tag>
  <tag k="note:type" v="FF"></tag>
</node>
<node lat="47.655647984393816" lon="14.733529864005337" id="-629">
  <tag k="amenity" v="fire_station"></tag>
  <tag k="ref:ogdsteiermark" v="1470"></tag>
  <tag k="name" v="Kirchenlandl"></tag>
  <tag k="note:type" v="FF"></tag>
</node>
<node lat="47.669079344799165" lon="14.818473452469327" id="-630">
  <tag k="amenity" v="fire_station"></tag>
  <tag k="ref:ogdsteiermark" v="1471"></tag>
  <tag k="name" v="Krautgraben"></tag>
  <tag k="note:type" v="FF"></tag>
</node>
<node lat="47.549773929906614" lon="13.96975709092379" id="-631">
  <tag k="amenity" v="fire_station"></tag>
  <tag k="ref:ogdsteiermark" v="1472"></tag>
  <tag k="name" v="Krungl"></tag>
  <tag k="note:type" v="FF"></tag>
</node>
<node lat="47.63519715568885" lon="14.766802321410614" id="-632">
  <tag k="amenity" v="fire_station"></tag>
  <tag k="ref:ogdsteiermark" v="1473"></tag>
  <tag k="name" v="Lainbach"></tag>
  <tag k="note:type" v="FF"></tag>
</node>
<node lat="47.50990114476144" lon="14.140616892441095" id="-633">
  <tag k="amenity" v="fire_station"></tag>
  <tag k="ref:ogdsteiermark" v="1474"></tag>
  <tag k="name" v="Lantschern"></tag>
  <tag k="note:type" v="FF"></tag>
</node>
<node lat="47.52769104450695" lon="14.26644513849437" id="-634">
  <tag k="amenity" v="fire_station"></tag>
  <tag k="ref:ogdsteiermark" v="1475"></tag>
  <tag k="name" v="Lassing"></tag>
  <tag k="note:type" v="FF"></tag>
</node>
<node lat="47.47398183948097" lon="13.939222853761594" id="-635">
  <tag k="amenity" v="fire_station"></tag>
  <tag k="ref:ogdsteiermark" v="1476"></tag>
  <tag k="name" v="Lengdorf"></tag>
  <tag k="note:type" v="FF"></tag>
</node>
<node lat="47.567243070192376" lon="14.239252916500305" id="-636">
  <tag k="amenity" v="fire_station"></tag>
  <tag k="ref:ogdsteiermark" v="1477"></tag>
  <tag k="name" v="Liezen-Stadt"></tag>
  <tag k="note:type" v="FF"></tag>
</node>
<node lat="47.629008449287305" lon="13.721614806347523" id="-637">
  <tag k="amenity" v="fire_station"></tag>
  <tag k="ref:ogdsteiermark" v="1478"></tag>
  <tag k="name" v="Lupitsch"></tag>
  <tag k="note:type" v="FF"></tag>
</node>
<node lat="47.404263820507886" lon="13.575874435449823" id="-638">
  <tag k="amenity" v="fire_station"></tag>
  <tag k="ref:ogdsteiermark" v="1479"></tag>
  <tag k="name" v="Mandling-Pichl"></tag>
  <tag k="note:type" v="FF"></tag>
</node>
<node lat="47.42599592881914" lon="13.90662990898526" id="-639">
  <tag k="amenity" v="fire_station"></tag>
  <tag k="ref:ogdsteiermark" v="1480"></tag>
  <tag k="name" v="Michaelerberg"></tag>
  <tag k="note:type" v="FF"></tag>
</node>
<node lat="47.454129538047404" lon="13.94463132859352" id="-640">
  <tag k="amenity" v="fire_station"></tag>
  <tag k="ref:ogdsteiermark" v="1481"></tag>
  <tag k="name" v="Mitterberg"></tag>
  <tag k="note:type" v="FF"></tag>
</node>
<node lat="47.65049042785558" lon="14.757157070979824" id="-641">
  <tag k="amenity" v="fire_station"></tag>
  <tag k="ref:ogdsteiermark" v="1482"></tag>
  <tag k="name" v="Mooslandl"></tag>
  <tag k="note:type" v="FF"></tag>
</node>
<node lat="47.54685389804942" lon="13.93576707365462" id="-642">
  <tag k="amenity" v="fire_station"></tag>
  <tag k="ref:ogdsteiermark" v="1483"></tag>
  <tag k="name" v="Neuhofen"></tag>
  <tag k="note:type" v="FF"></tag>
</node>
<node lat="47.47457906705447" lon="14.01877266054882" id="-643">
  <tag k="amenity" v="fire_station"></tag>
  <tag k="ref:ogdsteiermark" v="1484"></tag>
  <tag k="name" v="Niederöblarn"></tag>
  <tag k="note:type" v="FF"></tag>
</node>
<node lat="47.404337869075626" lon="13.740747688994963" id="-644">
  <tag k="amenity" v="fire_station"></tag>
  <tag k="ref:ogdsteiermark" v="1485"></tag>
  <tag k="name" v="Oberhaus"></tag>
  <tag k="note:type" v="FF"></tag>
</node>
<node lat="47.674119830130536" lon="14.643439812057764" id="-645">
  <tag k="amenity" v="fire_station"></tag>
  <tag k="ref:ogdsteiermark" v="1486"></tag>
  <tag k="name" v="Oberreith"></tag>
  <tag k="note:type" v="FF"></tag>
</node>
<node lat="47.57037151530497" lon="13.884084001021893" id="-646">
  <tag k="amenity" v="fire_station"></tag>
  <tag k="ref:ogdsteiermark" v="1487"></tag>
  <tag k="name" v="Obersdorf"></tag>
  <tag k="note:type" v="FF"></tag>
</node>
<node lat="47.61925693843753" lon="13.781818694781224" id="-647">
  <tag k="amenity" v="fire_station"></tag>
  <tag k="ref:ogdsteiermark" v="1488"></tag>
  <tag k="name" v="Obertressen"></tag>
  <tag k="note:type" v="FF"></tag>
</node>
<node lat="47.71022672406998" lon="14.81172077370042" id="-648">
  <tag k="amenity" v="fire_station"></tag>
  <tag k="ref:ogdsteiermark" v="1489"></tag>
  <tag k="name" v="Palfau"></tag>
  <tag k="note:type" v="FF"></tag>
</node>
<node lat="47.42601225581576" lon="13.874657971922899" id="-649">
  <tag k="amenity" v="fire_station"></tag>
  <tag k="ref:ogdsteiermark" v="1490"></tag>
  <tag k="name" v="Pruggern"></tag>
  <tag k="note:type" v="FF"></tag>
</node>
<node lat="47.53147483494676" lon="14.068728018098636" id="-650">
  <tag k="amenity" v="fire_station"></tag>
  <tag k="ref:ogdsteiermark" v="1491"></tag>
  <tag k="name" v="Pürgg"></tag>
  <tag k="note:type" v="FF"></tag>
</node>
<node lat="47.59167433661366" lon="14.276954232076225" id="-651">
  <tag k="amenity" v="fire_station"></tag>
  <tag k="ref:ogdsteiermark" v="1492"></tag>
  <tag k="name" v="Pyhrn"></tag>
  <tag k="note:type" v="FF"></tag>
</node>
<node lat="47.4160825465978" lon="13.674780009023673" id="-652">
  <tag k="amenity" v="fire_station"></tag>
  <tag k="ref:ogdsteiermark" v="1493"></tag>
  <tag k="name" v="Ramsau"></tag>
  <tag k="note:type" v="FF"></tag>
</node>
<node lat="47.49013278430364" lon="14.097626693906731" id="-653">
  <tag k="amenity" v="fire_station"></tag>
  <tag k="ref:ogdsteiermark" v="1494"></tag>
  <tag k="name" v="Raumberg"></tag>
  <tag k="note:type" v="FF"></tag>
</node>
<node lat="47.607788642614935" lon="13.770336854059057" id="-654">
  <tag k="amenity" v="fire_station"></tag>
  <tag k="ref:ogdsteiermark" v="1495"></tag>
  <tag k="name" v="Reitern"></tag>
  <tag k="note:type" v="FF"></tag>
</node>
<node lat="47.52721848377318" lon="14.363218781389183" id="-655">
  <tag k="amenity" v="fire_station"></tag>
  <tag k="ref:ogdsteiermark" v="1496"></tag>
  <tag k="name" v="Rottenmann"></tag>
  <tag k="note:type" v="FF"></tag>
</node>
<node lat="47.41245795732031" lon="13.793864752387472" id="-656">
  <tag k="amenity" v="fire_station"></tag>
  <tag k="ref:ogdsteiermark" v="1497"></tag>
  <tag k="name" v="Ruperting"></tag>
  <tag k="note:type" v="FF"></tag>
</node>
<node lat="47.39212633701915" lon="13.682176581230685" id="-657">
  <tag k="amenity" v="fire_station"></tag>
  <tag k="ref:ogdsteiermark" v="1498"></tag>
  <tag k="name" v="Schladming"></tag>
  <tag k="note:type" v="FF"></tag>
</node>
<node lat="47.5521825282328" lon="14.31957121877322" id="-658">
  <tag k="amenity" v="fire_station"></tag>
  <tag k="ref:ogdsteiermark" v="1499"></tag>
  <tag k="name" v="Selzthal"></tag>
  <tag k="note:type" v="FF"></tag>
</node>
<node lat="47.51148749779871" lon="14.41412875520458" id="-659">
  <tag k="amenity" v="fire_station"></tag>
  <tag k="ref:ogdsteiermark" v="1500"></tag>
  <tag k="name" v="Singsdorf-Edlach"></tag>
  <tag k="note:type" v="FF"></tag>
</node>
<node lat="47.689796803245336" lon="14.616490670474938" id="-660">
  <tag k="amenity" v="fire_station"></tag>
  <tag k="ref:ogdsteiermark" v="1501"></tag>
  <tag k="name" v="St. Gallen"></tag>
  <tag k="note:type" v="FF"></tag>
</node>
<node lat="47.493802421449956" lon="14.451045331723773" id="-661">
  <tag k="amenity" v="fire_station"></tag>
  <tag k="ref:ogdsteiermark" v="1502"></tag>
  <tag k="name" v="St. Lorenzen im Paltental"></tag>
  <tag k="note:type" v="FF"></tag>
</node>
<node lat="47.48850205855578" lon="13.981545932036848" id="-662">
  <tag k="amenity" v="fire_station"></tag>
  <tag k="ref:ogdsteiermark" v="1503"></tag>
  <tag k="name" v="St. Martin am Grimming"></tag>
  <tag k="note:type" v="FF"></tag>
</node>
<node lat="47.34374796271726" lon="14.033268209694219" id="-663">
  <tag k="amenity" v="fire_station"></tag>
  <tag k="ref:ogdsteiermark" v="1504"></tag>
  <tag k="name" v="Mößna-St. Nikolai i. Sölktal"></tag>
  <tag k="note:type" v="FF"></tag>
</node>
<node lat="47.53397872164351" lon="14.10660040777735" id="-664">
  <tag k="amenity" v="fire_station"></tag>
  <tag k="ref:ogdsteiermark" v="1505"></tag>
  <tag k="name" v="Stainach"></tag>
  <tag k="note:type" v="FF"></tag>
</node>
<node lat="47.43578421434431" lon="13.944022226650024" id="-665">
  <tag k="amenity" v="fire_station"></tag>
  <tag k="ref:ogdsteiermark" v="1506"></tag>
  <tag k="name" v="Stein a. d. Enns"></tag>
  <tag k="note:type" v="FF"></tag>
</node>
<node lat="47.60539231727279" lon="13.818539465013691" id="-666">
  <tag k="amenity" v="fire_station"></tag>
  <tag k="ref:ogdsteiermark" v="1507"></tag>
  <tag k="name" v="Strassen"></tag>
  <tag k="note:type" v="FF"></tag>
</node>
<node lat="47.558017711356186" lon="14.014487840958976" id="-667">
  <tag k="amenity" v="fire_station"></tag>
  <tag k="ref:ogdsteiermark" v="1508"></tag>
  <tag k="name" v="Tauplitz"></tag>
  <tag k="note:type" v="FF"></tag>
</node>
<node lat="47.47512613456342" lon="14.591805687064964" id="-668">
  <tag k="amenity" v="fire_station"></tag>
  <tag k="ref:ogdsteiermark" v="1509"></tag>
  <tag k="name" v="Treglwang"></tag>
  <tag k="note:type" v="FF"></tag>
</node>
<node lat="47.483514425632634" lon="14.487289226076904" id="-669">
  <tag k="amenity" v="fire_station"></tag>
  <tag k="ref:ogdsteiermark" v="1510"></tag>
  <tag k="name" v="Trieben"></tag>
  <tag k="note:type" v="FF"></tag>
</node>
<node lat="47.52544761057496" lon="14.074499823020236" id="-670">
  <tag k="amenity" v="fire_station"></tag>
  <tag k="ref:ogdsteiermark" v="1511"></tag>
  <tag k="name" v="Unterburg"></tag>
  <tag k="note:type" v="FF"></tag>
</node>
<node lat="47.37248840581691" lon="13.677135264367895" id="-671">
  <tag k="amenity" v="fire_station"></tag>
  <tag k="ref:ogdsteiermark" v="1512"></tag>
  <tag k="name" v="Untertal-Rohrmoos"></tag>
  <tag k="note:type" v="FF"></tag>
</node>
<node lat="47.56803181809202" lon="14.207628678629918" id="-672">
  <tag k="amenity" v="fire_station"></tag>
  <tag k="ref:ogdsteiermark" v="1513"></tag>
  <tag k="name" v="Weißenbach bei Liezen"></tag>
  <tag k="note:type" v="FF"></tag>
</node>
<node lat="47.597070815905326" lon="14.503953268213536" id="-673">
  <tag k="amenity" v="fire_station"></tag>
  <tag k="ref:ogdsteiermark" v="1514"></tag>
  <tag k="name" v="Weng bei Admont"></tag>
  <tag k="note:type" v="FF"></tag>
</node>
<node lat="47.554674932637475" lon="14.149207713786081" id="-674">
  <tag k="amenity" v="fire_station"></tag>
  <tag k="ref:ogdsteiermark" v="1515"></tag>
  <tag k="name" v="Wörschach"></tag>
  <tag k="note:type" v="FF"></tag>
</node>
<node lat="47.55958139401572" lon="14.0659968180239" id="-675">
  <tag k="amenity" v="fire_station"></tag>
  <tag k="ref:ogdsteiermark" v="1516"></tag>
  <tag k="name" v="Wörschachwald"></tag>
  <tag k="note:type" v="FF"></tag>
</node>
<node lat="47.55439969208903" lon="13.95444040173259" id="-676">
  <tag k="amenity" v="fire_station"></tag>
  <tag k="ref:ogdsteiermark" v="1517"></tag>
  <tag k="name" v="Zauchen"></tag>
  <tag k="note:type" v="FF"></tag>
</node>
<node lat="47.52677523540203" lon="14.35845633070145" id="-677">
  <tag k="amenity" v="fire_station"></tag>
  <tag k="ref:ogdsteiermark" v="1518"></tag>
  <tag k="name" v="Industriepark Rottenmann"></tag>
  <tag k="note:type" v="BTF"></tag>
</node>
<node lat="47.59839865765898" lon="13.791189478375644" id="-678">
  <tag k="amenity" v="fire_station"></tag>
  <tag k="ref:ogdsteiermark" v="1519"></tag>
  <tag k="name" v="RIGIPS Austria GesmbH"></tag>
  <tag k="note:type" v="BTF"></tag>
</node>
<node lat="47.44954257422233" lon="13.911495333863904" id="-679">
  <tag k="amenity" v="fire_station"></tag>
  <tag k="ref:ogdsteiermark" v="1520"></tag>
  <tag k="name" v="Anton Schlecker GmbH Gröbming"></tag>
  <tag k="note:type" v="BTF"></tag>
</node>
<node lat="47.71850275369914" lon="14.663482320784968" id="-680">
  <tag k="amenity" v="fire_station"></tag>
  <tag k="ref:ogdsteiermark" v="1521"></tag>
  <tag k="name" v="Steir. Druckgußwerk Altenmarkt GmbH"></tag>
  <tag k="note:type" v="BTF"></tag>
</node>
<node lat="47.64577579654889" lon="14.934040501917394" id="-681">
  <tag k="amenity" v="fire_station"></tag>
  <tag k="ref:ogdsteiermark" v="1522"></tag>
  <tag k="name" v="Hinterwildalpen"></tag>
  <tag k="note:type" v="FF"></tag>
</node>
<node lat="47.44768761712952" lon="13.876356907740613" id="-682">
  <tag k="amenity" v="fire_station"></tag>
  <tag k="ref:ogdsteiermark" v="1523"></tag>
  <tag k="name" v="Gröbming-Winkel"></tag>
  <tag k="note:type" v="FF"></tag>
</node>
<node lat="47.55175618516494" lon="14.014738795279523" id="-683">
  <tag k="amenity" v="fire_station"></tag>
  <tag k="ref:ogdsteiermark" v="1524"></tag>
  <tag k="name" v="Klachau"></tag>
  <tag k="note:type" v="FF"></tag>
</node>
<node lat="47.397317774626856" lon="13.812132658480058" id="-684">
  <tag k="amenity" v="fire_station"></tag>
  <tag k="ref:ogdsteiermark" v="1525"></tag>
  <tag k="name" v="Petersberg"></tag>
  <tag k="note:type" v="FF"></tag>
</node>
<node lat="47.48749854536225" lon="14.49107643422223" id="-685">
  <tag k="amenity" v="fire_station"></tag>
  <tag k="ref:ogdsteiermark" v="1526"></tag>
  <tag k="name" v="Veitsch-Radex GmbH Trieben"></tag>
  <tag k="note:type" v="BTF"></tag>
</node>
<node lat="47.56339559114194" lon="14.25034852439747" id="-686">
  <tag k="amenity" v="fire_station"></tag>
  <tag k="ref:ogdsteiermark" v="1527"></tag>
  <tag k="name" v="MFL. Liezen u. Gießerei GmbH"></tag>
  <tag k="note:type" v="BTF"></tag>
</node>
<node lat="47.531998769827155" lon="14.609390434291898" id="-687">
  <tag k="amenity" v="fire_station"></tag>
  <tag k="ref:ogdsteiermark" v="1528"></tag>
  <tag k="name" v="Johnsbach"></tag>
  <tag k="note:type" v="FF"></tag>
</node>
<node lat="47.49723095814675" lon="14.088413599819717" id="-688">
  <tag k="amenity" v="fire_station"></tag>
  <tag k="ref:ogdsteiermark" v="1529"></tag>
  <tag k="name" v="Altirdning"></tag>
  <tag k="note:type" v="FF"></tag>
</node>
<node lat="47.409407368752575" lon="13.768743307010643" id="-689">
  <tag k="amenity" v="fire_station"></tag>
  <tag k="ref:ogdsteiermark" v="1530"></tag>
  <tag k="name" v="Haus"></tag>
  <tag k="note:type" v="FF"></tag>
</node>
<node lat="47.4616401303809" lon="13.99030279299815" id="-690">
  <tag k="amenity" v="fire_station"></tag>
  <tag k="ref:ogdsteiermark" v="1531"></tag>
  <tag k="name" v="Öblarn"></tag>
  <tag k="note:type" v="FF"></tag>
</node>
<node lat="47.40196405002988" lon="13.879738746688611" id="-764">
  <tag k="amenity" v="fire_station"></tag>
  <tag k="ref:ogdsteiermark" v="1605"></tag>
  <tag k="name" v="Pruggererberg-Sattental"></tag>
  <tag k="note:type" v="FF-LZ"></tag>
</node>
<node lat="47.6287939035632" lon="13.797949705480304" id="-765">
  <tag k="amenity" v="fire_station"></tag>
  <tag k="ref:ogdsteiermark" v="1606"></tag>
  <tag k="name" v="Sattel"></tag>
  <tag k="note:type" v="FF-LZ"></tag>
</node>
<node lat="47.42358949518178" lon="13.778754237179767" id="-768">
  <tag k="amenity" v="fire_station"></tag>
  <tag k="ref:ogdsteiermark" v="1609"></tag>
  <tag k="name" v="Weißenbach bei Haus"></tag>
  <tag k="note:type" v="FF"></tag>
</node>
<node lat="47.70676481931145" lon="14.629658455335854" id="-769">
  <tag k="amenity" v="fire_station"></tag>
  <tag k="ref:ogdsteiermark" v="1610"></tag>
  <tag k="name" v="Weißenbach a. d. Enns"></tag>
  <tag k="note:type" v="FF"></tag>
</node>
<node lat="47.662509473781505" lon="14.986901297975374" id="-770">
  <tag k="amenity" v="fire_station"></tag>
  <tag k="ref:ogdsteiermark" v="1611"></tag>
  <tag k="name" v="Wildalpen"></tag>
  <tag k="note:type" v="FF"></tag>
</node>
<node lat="47.419755337504064" lon="13.821558934720306" id="-771">
  <tag k="amenity" v="fire_station"></tag>
  <tag k="ref:ogdsteiermark" v="1612"></tag>
  <tag k="name" v="Aich"></tag>
  <tag k="note:type" v="FF"></tag>
</node>
<node lat="47.54647777323073" lon="14.038896068436207" id="-772">
  <tag k="amenity" v="fire_station"></tag>
  <tag k="ref:ogdsteiermark" v="1613"></tag>
  <tag k="name" v="Lessern"></tag>
  <tag k="note:type" v="FF-LZ"></tag>
</node>
<node lat="47.59200903293167" lon="13.986141474421851" id="-773">
  <tag k="amenity" v="fire_station"></tag>
  <tag k="ref:ogdsteiermark" v="1614"></tag>
  <tag k="name" v="Tauplitz-Alm"></tag>
  <tag k="note:type" v="FF-LZ"></tag>
</node>
<node lat="47.492352361834484" lon="14.473783362149291" id="-781">
  <tag k="amenity" v="fire_station"></tag>
  <tag k="ref:ogdsteiermark" v="1622"></tag>
  <tag k="name" v="Veitsch-Radex GmbH Trieben Kw"></tag>
  <tag k="note:type" v="BTF"></tag>
</node>
<node lat="47.6055828825077" lon="13.800720421323831" id="-784">
  <tag k="amenity" v="fire_station"></tag>
  <tag k="ref:ogdsteiermark" v="1625"></tag>
  <tag k="name" v="Seilbahnstation Radling"></tag>
  <tag k="note:type" v="BTF"></tag>
</node>
<node lat="47.62011546351697" lon="13.871353978558826" id="-785">
  <tag k="amenity" v="fire_station"></tag>
  <tag k="ref:ogdsteiermark" v="1626"></tag>
  <tag k="name" v="Seilbahnantriebsstation Auermahd"></tag>
  <tag k="note:type" v="BTF"></tag>
</node>
<node lat="47.627218850947926" lon="13.888792102560787" id="-786">
  <tag k="amenity" v="fire_station"></tag>
  <tag k="ref:ogdsteiermark" v="1627"></tag>
  <tag k="name" v="Seilbahnentladestation Wienern"></tag>
  <tag k="note:type" v="BTF"></tag>
</node>
<node lat="47.4878233431167" lon="14.535472021386578" id="-787">
  <tag k="amenity" v="fire_station"></tag>
  <tag k="ref:ogdsteiermark" v="1628"></tag>
  <tag k="name" v="Mayr-Melnhof Systemholz AG"></tag>
  <tag k="note:type" v="BTF"></tag>
</node>
<node lat="47.56724416563443" lon="14.239251212181301" id="-805">
  <tag k="amenity" v="fire_station"></tag>
  <tag k="ref:ogdsteiermark" v="1646"></tag>
  <tag k="name" v="Bezirksflorianstation Liezen"></tag>
  <tag k="note:type" v="FL"></tag>
</node>
<node lat="47.57264086878153" lon="14.464203346565736" id="-834">
  <tag k="amenity" v="fire_station"></tag>
  <tag k="ref:ogdsteiermark" v="1675"></tag>
  <tag k="name" v="Stia Holzindustrie GmbH"></tag>
  <tag k="note:type" v="BTF"></tag>
</node>
<node lat="47.6370810932011" lon="13.903644834358893" id="-841">
  <tag k="amenity" v="fire_station"></tag>
  <tag k="ref:ogdsteiermark" v="1682"></tag>
  <tag k="name" v="Gößl"></tag>
  <tag k="note:type" v="FF"></tag>
</node>
</osm>